CCSDS_OMM_VERS = 2.0
CREATION_DATE  = 
ORIGINATOR     = 

OBJECT_NAME    = STARLINK-36165
OBJECT_ID      = 2025-286N
CENTER_NAME    = EARTH
REF_FRAME      = TEME
TIME_SYSTEM    = UTC
MEAN_ELEMENT_THEORY = SGP/SGP4

EPOCH          = 2026-01-02T13:02:34.390176
MEAN_MOTION    = 15.49369178
ECCENTRICITY   = .0001394
INCLINATION    = 53.1604
RA_OF_ASC_NODE = 308.2350
ARG_OF_PERICENTER = 108.8905
MEAN_ANOMALY   = 251.2256

EPHEMERIS_TYPE = 0
CLASSIFICATION_TYPE = U
NORAD_CAT_ID   = 66937
ELEMENT_SET_NO = 999
REV_AT_EPOCH   = 525
BSTAR          = .24638E-2
MEAN_MOTION_DOT = .139342E-2
MEAN_MOTION_DDOT = 0

CCSDS_OMM_VERS = 2.0
CREATION_DATE  = 
ORIGINATOR     = 

OBJECT_NAME    = STARLINK-36155
OBJECT_ID      = 2025-286P
CENTER_NAME    = EARTH
REF_FRAME      = TEME
TIME_SYSTEM    = UTC
MEAN_ELEMENT_THEORY = SGP/SGP4

EPOCH          = 2026-01-02T13:02:34.439424
MEAN_MOTION    = 15.49351201
ECCENTRICITY   = .0001499
INCLINATION    = 53.1602
RA_OF_ASC_NODE = 308.2331
ARG_OF_PERICENTER = 101.9404
MEAN_ANOMALY   = 258.1773

EPHEMERIS_TYPE = 0
CLASSIFICATION_TYPE = U
NORAD_CAT_ID   = 66938
ELEMENT_SET_NO = 999
REV_AT_EPOCH   = 525
BSTAR          = .21481E-2
MEAN_MOTION_DOT = .121068E-2
MEAN_MOTION_DDOT = 0

CCSDS_OMM_VERS = 2.0
CREATION_DATE  = 
ORIGINATOR     = 

OBJECT_NAME    = STARLINK-36154
OBJECT_ID      = 2025-286Q
CENTER_NAME    = EARTH
REF_FRAME      = TEME
TIME_SYSTEM    = UTC
MEAN_ELEMENT_THEORY = SGP/SGP4

EPOCH          = 2026-01-02T18:00:01.999296
MEAN_MOTION    = 15.39526329
ECCENTRICITY   = .0001121
INCLINATION    = 53.1605
RA_OF_ASC_NODE = 307.4887
ARG_OF_PERICENTER = 81.8219
MEAN_ANOMALY   = 228.5562

EPHEMERIS_TYPE = 0
CLASSIFICATION_TYPE = U
NORAD_CAT_ID   = 66939
ELEMENT_SET_NO = 999
REV_AT_EPOCH   = 536
BSTAR          = .26642E-2
MEAN_MOTION_DOT = .107346E-2
MEAN_MOTION_DDOT = 0

CCSDS_OMM_VERS = 2.0
CREATION_DATE  = 
ORIGINATOR     = 

OBJECT_NAME    = STARLINK-36121
OBJECT_ID      = 2025-286R
CENTER_NAME    = EARTH
REF_FRAME      = TEME
TIME_SYSTEM    = UTC
MEAN_ELEMENT_THEORY = SGP/SGP4

EPOCH          = 2026-01-02T18:00:01.999296
MEAN_MOTION    = 15.39537838
ECCENTRICITY   = .0001275
INCLINATION    = 53.1601
RA_OF_ASC_NODE = 307.4375
ARG_OF_PERICENTER = 86.3359
MEAN_ANOMALY   = 249.7800

EPHEMERIS_TYPE = 0
CLASSIFICATION_TYPE = U
NORAD_CAT_ID   = 66940
ELEMENT_SET_NO = 999
REV_AT_EPOCH   = 536
BSTAR          = .26136E-2
MEAN_MOTION_DOT = .105312E-2
MEAN_MOTION_DDOT = 0

CCSDS_OMM_VERS = 2.0
CREATION_DATE  = 
ORIGINATOR     = 

OBJECT_NAME    = STARLINK-36088
OBJECT_ID      = 2025-286S
CENTER_NAME    = EARTH
REF_FRAME      = TEME
TIME_SYSTEM    = UTC
MEAN_ELEMENT_THEORY = SGP/SGP4

EPOCH          = 2026-01-02T02:02:07.596960
MEAN_MOTION    = 15.49341085
ECCENTRICITY   = .00009494
INCLINATION    = 53.1600
RA_OF_ASC_NODE = 310.3456
ARG_OF_PERICENTER = 68.0606
MEAN_ANOMALY   = 292.0504

EPHEMERIS_TYPE = 0
CLASSIFICATION_TYPE = U
NORAD_CAT_ID   = 66941
ELEMENT_SET_NO = 999
REV_AT_EPOCH   = 518
BSTAR          = .247057E-2
MEAN_MOTION_DOT = .139594E-2
MEAN_MOTION_DDOT = 0

CCSDS_OMM_VERS = 2.0
CREATION_DATE  = 
ORIGINATOR     = 

OBJECT_NAME    = STARLINK-36100
OBJECT_ID      = 2025-286T
CENTER_NAME    = EARTH
REF_FRAME      = TEME
TIME_SYSTEM    = UTC
MEAN_ELEMENT_THEORY = SGP/SGP4

EPOCH          = 2026-01-02T18:00:01.999296
MEAN_MOTION    = 15.39547011
ECCENTRICITY   = .0001394
INCLINATION    = 53.1594
RA_OF_ASC_NODE = 307.3854
ARG_OF_PERICENTER = 101.0514
MEAN_ANOMALY   = 260.8060

EPHEMERIS_TYPE = 0
CLASSIFICATION_TYPE = U
NORAD_CAT_ID   = 66942
ELEMENT_SET_NO = 999
REV_AT_EPOCH   = 529
BSTAR          = .25652E-2
MEAN_MOTION_DOT = .10336E-2
MEAN_MOTION_DDOT = 0

CCSDS_OMM_VERS = 2.0
CREATION_DATE  = 
ORIGINATOR     = 

OBJECT_NAME    = STARLINK-36109
OBJECT_ID      = 2025-286U
CENTER_NAME    = EARTH
REF_FRAME      = TEME
TIME_SYSTEM    = UTC
MEAN_ELEMENT_THEORY = SGP/SGP4

EPOCH          = 2026-01-02T18:00:01.999296
MEAN_MOTION    = 15.40351714
ECCENTRICITY   = .0000822
INCLINATION    = 53.1590
RA_OF_ASC_NODE = 307.2835
ARG_OF_PERICENTER = 114.7289
MEAN_ANOMALY   = 298.2186

EPHEMERIS_TYPE = 0
CLASSIFICATION_TYPE = U
NORAD_CAT_ID   = 66943
ELEMENT_SET_NO = 999
REV_AT_EPOCH   = 529
BSTAR          = -.27791E-1
MEAN_MOTION_DOT = -.1048047E-1
MEAN_MOTION_DDOT = 0

CCSDS_OMM_VERS = 2.0
CREATION_DATE  = 
ORIGINATOR     = 

OBJECT_NAME    = STARLINK-36112
OBJECT_ID      = 2025-286V
CENTER_NAME    = EARTH
REF_FRAME      = TEME
TIME_SYSTEM    = UTC
MEAN_ELEMENT_THEORY = SGP/SGP4

EPOCH          = 2026-01-02T12:59:48.268032
MEAN_MOTION    = 15.48570969
ECCENTRICITY   = .0003109
INCLINATION    = 53.1604
RA_OF_ASC_NODE = 308.2193
ARG_OF_PERICENTER = 61.1555
MEAN_ANOMALY   = 298.9765

EPHEMERIS_TYPE = 0
CLASSIFICATION_TYPE = U
NORAD_CAT_ID   = 66944
ELEMENT_SET_NO = 999
REV_AT_EPOCH   = 525
BSTAR          = -.4497E-2
MEAN_MOTION_DOT = -.236974E-2
MEAN_MOTION_DDOT = 0

CCSDS_OMM_VERS = 2.0
CREATION_DATE  = 
ORIGINATOR     = 

OBJECT_NAME    = STARLINK-36110
OBJECT_ID      = 2025-286W
CENTER_NAME    = EARTH
REF_FRAME      = TEME
TIME_SYSTEM    = UTC
MEAN_ELEMENT_THEORY = SGP/SGP4

EPOCH          = 2026-01-02T18:00:01.999296
MEAN_MOTION    = 15.43507362
ECCENTRICITY   = .0001105
INCLINATION    = 53.1591
RA_OF_ASC_NODE = 307.2425
ARG_OF_PERICENTER = 88.9749
MEAN_ANOMALY   = 344.0359

EPHEMERIS_TYPE = 0
CLASSIFICATION_TYPE = U
NORAD_CAT_ID   = 66945
ELEMENT_SET_NO = 999
REV_AT_EPOCH   = 536
BSTAR          = -.49706E-1
MEAN_MOTION_DOT = -.2015957E-1
MEAN_MOTION_DDOT = 0

CCSDS_OMM_VERS = 2.0
CREATION_DATE  = 
ORIGINATOR     = 

OBJECT_NAME    = STARLINK-36115
OBJECT_ID      = 2025-286X
CENTER_NAME    = EARTH
REF_FRAME      = TEME
TIME_SYSTEM    = UTC
MEAN_ELEMENT_THEORY = SGP/SGP4

EPOCH          = 2026-01-02T12:58:37.082208
MEAN_MOTION    = 15.49354708
ECCENTRICITY   = .0001374
INCLINATION    = 53.1594
RA_OF_ASC_NODE = 308.2150
ARG_OF_PERICENTER = 99.4933
MEAN_ANOMALY   = 260.6231

EPHEMERIS_TYPE = 0
CLASSIFICATION_TYPE = U
NORAD_CAT_ID   = 66946
ELEMENT_SET_NO = 999
REV_AT_EPOCH   = 525
BSTAR          = .20542E-2
MEAN_MOTION_DOT = .11569E-2
MEAN_MOTION_DDOT = 0

CCSDS_OMM_VERS = 2.0
CREATION_DATE  = 
ORIGINATOR     = 

OBJECT_NAME    = STARLINK-36089
OBJECT_ID      = 2025-286Y
CENTER_NAME    = EARTH
REF_FRAME      = TEME
TIME_SYSTEM    = UTC
MEAN_ELEMENT_THEORY = SGP/SGP4

EPOCH          = 2026-01-02T05:13:10.125120
MEAN_MOTION    = 15.49358429
ECCENTRICITY   = .0001171
INCLINATION    = 53.1585
RA_OF_ASC_NODE = 309.7512
ARG_OF_PERICENTER = 77.5319
MEAN_ANOMALY   = 282.5821

EPHEMERIS_TYPE = 0
CLASSIFICATION_TYPE = U
NORAD_CAT_ID   = 66947
ELEMENT_SET_NO = 999
REV_AT_EPOCH   = 520
BSTAR          = .21713E-2
MEAN_MOTION_DOT = .122432E-2
MEAN_MOTION_DDOT = 0

CCSDS_OMM_VERS = 2.0
CREATION_DATE  = 
ORIGINATOR     = 

OBJECT_NAME    = STARLINK-36116
OBJECT_ID      = 2025-286Z
CENTER_NAME    = EARTH
REF_FRAME      = TEME
TIME_SYSTEM    = UTC
MEAN_ELEMENT_THEORY = SGP/SGP4

EPOCH          = 2026-01-02T19:09:41.385024
MEAN_MOTION    = 15.49341670
ECCENTRICITY   = .0001404
INCLINATION    = 53.1599
RA_OF_ASC_NODE = 306.9790
ARG_OF_PERICENTER = 113.3563
MEAN_ANOMALY   = 246.7593

EPHEMERIS_TYPE = 0
CLASSIFICATION_TYPE = U
NORAD_CAT_ID   = 66948
ELEMENT_SET_NO = 999
REV_AT_EPOCH   = 529
BSTAR          = .23287E-2
MEAN_MOTION_DOT = .131417E-2
MEAN_MOTION_DDOT = 0

