STARLINK-36165          
1 66937U 25286N   26002.54345359  .00139342  00000+0  24638-2 0  9998
2 66937  53.1604 308.2350 0001394 108.8905 251.2256 15.49369178  5259
STARLINK-36155          
1 66938U 25286P   26002.54345416  .00121068  00000+0  21481-2 0  9992
2 66938  53.1602 308.2331 0001499 101.9404 258.1773 15.49351201  5259
STARLINK-36154          
1 66939U 25286Q   26002.75002314  .00107346  00000+0  26642-2 0  9990
2 66939  53.1605 307.4887 0001121  81.8219 228.5562 15.39526329  5365
STARLINK-36121          
1 66940U 25286R   26002.75002314  .00105312  00000+0  26136-2 0  9991
2 66940  53.1601 307.4375 0001275  86.3359 249.7800 15.39537838  5367
STARLINK-36088          
1 66941U 25286S   26002.08481015  .00139594  00000+0  24706-2 0  9997
2 66941  53.1600 310.3456 0000949  68.0606 292.0504 15.49341085  5189
STARLINK-36100          
1 66942U 25286T   26002.75002314  .00103360  00000+0  25652-2 0  9996
2 66942  53.1594 307.3854 0001394 101.0514 260.8060 15.39547011  5299
STARLINK-36109          
1 66943U 25286U   26002.75002314 -.01048047  00000+0 -27791-1 0  9995
2 66943  53.1590 307.2835 0000822 114.7289 298.2186 15.40351714  5298
STARLINK-36112          
1 66944U 25286V   26002.54153088 -.00236974  00000+0 -44970-2 0  9994
2 66944  53.1604 308.2193 0003109  61.1555 298.9765 15.48570969  5254
STARLINK-36110          
1 66945U 25286W   26002.75002314 -.02015957  00000+0 -49706-1 0  9992
2 66945  53.1591 307.2425 0001105  88.9749 344.0359 15.43507362  5369
STARLINK-36115          
1 66946U 25286X   26002.54070697  .00115690  00000+0  20542-2 0  9998
2 66946  53.1594 308.2150 0001374  99.4933 260.6231 15.49354708  5259
STARLINK-36089          
1 66947U 25286Y   26002.21747830  .00122432  00000+0  21713-2 0  9996
2 66947  53.1585 309.7512 0001171  77.5319 282.5821 15.49358429  5205
STARLINK-36116          
1 66948U 25286Z   26002.79839566  .00131417  00000+0  23287-2 0  9999
2 66948  53.1599 306.9790 0001404 113.3563 246.7593 15.49341670  5294
